*******************************************************************************
JPL/HORIZONS                1721 Wells (1953 TD3)          2023-Sep-04 11:13:47
Rec #:    1721 (+COV) Soln.date: 2023-Aug-22_09:33:14   # obs: 9500 (1905-2023)
 
IAU76/J2000 helio. ecliptic osc. elements (au, days, deg., period=Julian yrs):
 
  EPOCH=  2458258.5 ! 2018-May-20.00 (TDB)         Residual RMS= .18655
   EC= .04703098030446277  QR= 3.002125229002665   TP= 2457425.8163706786
   OM= 317.163565149755    W=  137.8978316478962   IN= 16.10476869279291
   A= 3.150286281039661    MA= 146.7773584562368   ADIST= 3.298447333076656
   PER= 5.59156            N= .176270258           ANGMOM= .030498298
   DAN= 3.25697            DDN= 3.03733            L= 96.1998413
   B= 10.7183045           MOID= 2.03349996        TP= 2016-Feb-07.3163706786
 
Asteroid physical parameters (km, seconds, rotational period in hours):
   GM= n.a.                RAD= 21.788             ROTPER= 11.845
   H= 10.94                G= .150                 B-V= n.a.
                           ALBEDO= .045            STYP= n.a.

ASTEROID comments: 
1: soln ref.= JPL#58, OCC=0
2: source=ORB
*******************************************************************************


*******************************************************************************
Ephemeris / API_USER Mon Sep  4 11:13:47 2023 Pasadena, USA      / Horizons
*******************************************************************************
Target body name: 1721 Wells (1953 TD3)           {source: JPL#58}
Center body name: Solar System Barycenter (0)     {source: DE441}
Center-site name: BODY CENTER
*******************************************************************************
Start time      : A.D. 2023-Aug-12 00:00:00.0000 TDB
Stop  time      : A.D. 2023-Aug-13 00:00:00.0000 TDB
Step-size       : 2880 minutes
*******************************************************************************
Center geodetic : 0.0, 0.0, 0.0                   {E-lon(deg),Lat(deg),Alt(km)}
Center cylindric: 0.0, 0.0, 0.0                   {E-lon(deg),Dxy(km),Dz(km)}
Center radii    : (undefined)
Small perturbers: Yes                             {source: SB441-N16}
Output units    : KM-S
Calendar mode   : Mixed Julian/Gregorian
Output type     : GEOMETRIC cartesian states
Output format   : 2 (position and velocity)
Reference frame : Ecliptic of J2000.0
*******************************************************************************
Initial IAU76/J2000 heliocentric ecliptic osculating elements (au, days, deg.):
  EPOCH=  2458258.5 ! 2018-May-20.00 (TDB)         Residual RMS= .18655        
   EC= .04703098030446277  QR= 3.002125229002665   TP= 2457425.8163706786      
   OM= 317.163565149755    W=  137.8978316478962   IN= 16.10476869279291       
  Equivalent ICRF heliocentric cartesian coordinates (au, au/d):
   X=-1.319228045344723E+00  Y=-2.289167483731042E+00  Z=-1.937230193992333E+00
  VX= 8.245134151609058E-03 VY=-4.200434592859710E-03 VZ=-1.041927148650757E-03
Asteroid physical parameters (km, seconds, rotational period in hours):        
   GM= n.a.                RAD= 21.788             ROTPER= 11.845              
   H= 10.94                G= .150                 B-V= n.a.                   
                           ALBEDO= .045            STYP= n.a.                  
*******************************************************************************
JDTDB
   X     Y     Z
   VX    VY    VZ
*******************************************************************************
$$SOE
2460168.500000000 = A.D. 2023-Aug-12 00:00:00.0000 TDB 
 X =-3.397548396592972E+08 Y =-3.203792447524670E+08 Z =-1.343141457478698E+08
 VX= 1.079568772699115E+01 VY=-1.222193289915094E+01 VZ=-4.604271215688494E-01
$$EOE
*******************************************************************************
 
TIME

  Barycentric Dynamical Time ("TDB" or T_eph) output was requested. This
continuous coordinate time is equivalent to the relativistic proper time
of a clock at rest in a reference frame co-moving with the solar system
barycenter but outside the system's gravity well. It is the independent
variable in the solar system relativistic equations of motion.

  TDB runs at a uniform rate of one SI second per second and is independent
of irregularities in Earth's rotation.
 
CALENDAR SYSTEM

  Mixed calendar mode was active such that calendar dates after AD 1582-Oct-15
(if any) are in the modern Gregorian system. Dates prior to 1582-Oct-5 (if any)
are in the Julian calendar system, which is automatically extended for dates
prior to its adoption on 45-Jan-1 BC.  The Julian calendar is useful for
matching historical dates. The Gregorian calendar more accurately corresponds
to the Earth's orbital motion and seasons. A "Gregorian-only" calendar mode is
available if such physical events are the primary interest.

REFERENCE FRAME AND COORDINATES

  Ecliptic at the standard reference epoch

    Reference epoch: J2000.0
    X-Y plane: adopted Earth orbital plane at the reference epoch
               Note: IAU76 obliquity of 84381.448 arcseconds wrt ICRF X-Y plane
    X-axis   : ICRF
    Z-axis   : perpendicular to the X-Y plane in the directional (+ or -) sense
               of Earth's north pole at the reference epoch.

  Symbol meaning:

    JDTDB    Julian Day Number, Barycentric Dynamical Time
      X      X-component of position vector (km)
      Y      Y-component of position vector (km)
      Z      Z-component of position vector (km)
      VX     X-component of velocity vector (km/sec)                           
      VY     Y-component of velocity vector (km/sec)                           
      VZ     Z-component of velocity vector (km/sec)                           

ABERRATIONS AND CORRECTIONS

 Geometric state vectors have NO corrections or aberrations applied.

Computations by ...

    Solar System Dynamics Group, Horizons On-Line Ephemeris System
    4800 Oak Grove Drive, Jet Propulsion Laboratory
    Pasadena, CA  91109   USA

    General site: https://ssd.jpl.nasa.gov/
    Mailing list: https://ssd.jpl.nasa.gov/email_list.html
    System news : https://ssd.jpl.nasa.gov/horizons/news.html
    User Guide  : https://ssd.jpl.nasa.gov/horizons/manual.html
    Connect     : browser        https://ssd.jpl.nasa.gov/horizons/app.html#/x
                  API            https://ssd-api.jpl.nasa.gov/doc/horizons.html
                  command-line   telnet ssd.jpl.nasa.gov 6775
                  e-mail/batch   https://ssd.jpl.nasa.gov/ftp/ssd/hrzn_batch.txt
                  scripts        https://ssd.jpl.nasa.gov/ftp/ssd/SCRIPTS
    Author      : Jon.D.Giorgini@jpl.nasa.gov
*******************************************************************************
